{"type": "FeatureCollection", "features": [ {"type": "Feature", "properties": {"norad_id": 40664, "name": "SKY MEXICO-1", "group": "intelsat", "lat": -0.018383941502039647, "lon": -103.25040314207416, "alt_km": 35776.26300973389, "timestamp": "2025-12-14T16:47:40.350941+00:00", "meta": {"OBJECT_NAME": "SKY MEXICO-1", "OBJECT_ID": "2015-026B", "EPOCH": "2025-12-13T21:38:06.029952", "MEAN_MOTION": 1.00272137, "ECCENTRICITY": 0.00024999, "INCLINATION": 0.0396, "RA_OF_ASC_NODE": 81.0446, "ARG_OF_PERICENTER": 198.005, "MEAN_ANOMALY": 49.5399, "EPHEMERIS_TYPE": 0, "CLASSIFICATION_TYPE": "U", "NORAD_CAT_ID": 40664, "ELEMENT_SET_NO": 999, "REV_AT_EPOCH": 3859, "BSTAR": 0, "MEAN_MOTION_DOT": -2.18e-06, "MEAN_MOTION_DDOT": 0}, "tle": {"line1": "1 40664U 15026B   25347.90145868 -.00000218  00000+0  00000+0 0  9996", "line2": "2 40664   0.0396  81.0446 0002499 198.0050  49.5399  1.00272137 38597"}}, "geometry": {"type": "Point", "coordinates": [-103.25040314207416, -0.018383941502039647]}}, {"type": "Feature", "properties": {"norad_id": 40874, "name": "INTELSAT 34 (IS-34)", "group": "intelsat", "lat": -0.019917203092016715, "lon": -79.96264077377107, "alt_km": 35787.19358212928, "timestamp": "2025-12-14T16:47:40.350953+00:00", "meta": {"OBJECT_NAME": "INTELSAT 34 (IS-34)", "OBJECT_ID": "2015-039A", "EPOCH": "2025-12-13T23:27:25.557696", "MEAN_MOTION": 1.00274413, "ECCENTRICITY": 7.229e-05, "INCLINATION": 0.0104, "RA_OF_ASC_NODE": 314.3772, "ARG_OF_PERICENTER": 200.178, "MEAN_ANOMALY": 224.7051, "EPHEMERIS_TYPE": 0, "CLASSIFICATION_TYPE": "U", "NORAD_CAT_ID": 40874, "ELEMENT_SET_NO": 999, "REV_AT_EPOCH": 3776, "BSTAR": 0, "MEAN_MOTION_DOT": -2.69e-06, "MEAN_MOTION_DDOT": 0}, "tle": {"line1": "1 40874U 15039A   25347.97737914 -.00000269  00000+0  00000+0 0  9995", "line2": "2 40874   0.0104 314.3772 0000722 200.1780 224.7051  1.00274413 37762"}}, "geometry": {"type": "Point", "coordinates": [-79.96264077377107, -0.019917203092016715]}}, {"type": "Feature", "properties": {"norad_id": 41581, "name": "INTELSAT 31 (IS-31)", "group": "intelsat", "lat": -0.022787884646357507, "lon": -119.51780239831835, "alt_km": 35778.78277829849, "timestamp": "2025-12-14T16:47:40.350965+00:00", "meta": {"OBJECT_NAME": "INTELSAT 31 (IS-31)", "OBJECT_ID": "2016-035A", "EPOCH": "2025-12-13T21:33:28.971936", "MEAN_MOTION": 1.00272637, "ECCENTRICITY": 0.00019195, "INCLINATION": 0.0193, "RA_OF_ASC_NODE": 270.1586, "ARG_OF_PERICENTER": 301.2918, "MEAN_ANOMALY": 99.6912, "EPHEMERIS_TYPE": 0, "CLASSIFICATION_TYPE": "U", "NORAD_CAT_ID": 41581, "ELEMENT_SET_NO": 999, "REV_AT_EPOCH": 3482, "BSTAR": 0, "MEAN_MOTION_DOT": -1.35e-06, "MEAN_MOTION_DDOT": 0}, "tle": {"line1": "1 41581U 16035A   25347.89825199 -.00000135  00000+0  00000+0 0  9994", "line2": "2 41581   0.0193 270.1586 0001919 301.2918  99.6912  1.00272637 34828"}}, "geometry": {"type": "Point", "coordinates": [-119.51780239831835, -0.022787884646357507]}}, {"type": "Feature", "properties": {"norad_id": 41747, "name": "INTELSAT 36 (IS-36)", "group": "intelsat", "lat": 0.025070872161206063, "lon": 44.030908271732045, "alt_km": 35784.12569447878, "timestamp": "2025-12-14T16:47:40.350976+00:00", "meta": {"OBJECT_NAME": "INTELSAT 36 (IS-36)", "OBJECT_ID": "2016-053A", "EPOCH": "2025-12-13T12:03:51.221952", "MEAN_MOTION": 1.00272804, "ECCENTRICITY": 0.00013954, "INCLINATION": 0.0113, "RA_OF_ASC_NODE": 0.4303, "ARG_OF_PERICENTER": 329.8168, "MEAN_ANOMALY": 1.6387, "EPHEMERIS_TYPE": 0, "CLASSIFICATION_TYPE": "U", "NORAD_CAT_ID": 41747, "ELEMENT_SET_NO": 999, "REV_AT_EPOCH": 3408, "BSTAR": 0, "MEAN_MOTION_DOT": -1e-07, "MEAN_MOTION_DDOT": 0}, "tle": {"line1": "1 41747U 16053A   25347.50267618 -.00000010  00000+0  00000+0 0  9994", "line2": "2 41747   0.0113   0.4303 0001395 329.8168   1.6387  1.00272804 34089"}}, "geometry": {"type": "Point", "coordinates": [44.030908271732045, 0.025070872161206063]}}, {"type": "Feature", "properties": {"norad_id": 41945, "name": "INTELSAT 32E (IS-32E)", "group": "intelsat", "lat": -0.03119104423225728, "lon": -67.65313160301486, "alt_km": 35785.20431105884, "timestamp": "2025-12-14T16:47:40.350988+00:00", "meta": {"OBJECT_NAME": "INTELSAT 32E (IS-32E)", "OBJECT_ID": "2017-007B", "EPOCH": "2025-12-12T11:33:44.679168", "MEAN_MOTION": 1.00273861, "ECCENTRICITY": 3.861e-05, "INCLINATION": 0.0354, "RA_OF_ASC_NODE": 82.6036, "ARG_OF_PERICENTER": 280.6351, "MEAN_ANOMALY": 208.4399, "EPHEMERIS_TYPE": 0, "CLASSIFICATION_TYPE": "U", "NORAD_CAT_ID": 41945, "ELEMENT_SET_NO": 999, "REV_AT_EPOCH": 3235, "BSTAR": 0, "MEAN_MOTION_DOT": -2.58e-06, "MEAN_MOTION_DDOT": 0}, "tle": {"line1": "1 41945U 17007B   25346.48176712 -.00000258  00000+0  00000+0 0  9998", "line2": "2 41945   0.0354  82.6036 0000386 280.6351 208.4399  1.00273861 32350"}}, "geometry": {"type": "Point", "coordinates": [-67.65313160301486, -0.03119104423225728]}}, {"type": "Feature", "properties": {"norad_id": 42818, "name": "INTELSAT 35E (IS-35E)", "group": "intelsat", "lat": -0.02869405321996579, "lon": -58.95270664648044, "alt_km": 35779.039073741216, "timestamp": "2025-12-14T16:47:40.351000+00:00", "meta": {"OBJECT_NAME": "INTELSAT 35E (IS-35E)", "OBJECT_ID": "2017-041A", "EPOCH": "2025-12-13T21:50:42.321984", "MEAN_MOTION": 1.00273139, "ECCENTRICITY": 0.00020318, "INCLINATION": 0.0173, "RA_OF_ASC_NODE": 19.0161, "ARG_OF_PERICENTER": 243.6113, "MEAN_ANOMALY": 113.3915, "EPHEMERIS_TYPE": 0, "CLASSIFICATION_TYPE": "U", "NORAD_CAT_ID": 42818, "ELEMENT_SET_NO": 999, "REV_AT_EPOCH": 3095, "BSTAR": 0, "MEAN_MOTION_DOT": -2.21e-06, "MEAN_MOTION_DDOT": 0}, "tle": {"line1": "1 42818U 17041A   25347.91021206 -.00000221  00000+0  00000+0 0  9992", "line2": "2 42818   0.0173  19.0161 0002031 243.6113 113.3915  1.00273139 30956"}}, "geometry": {"type": "Point", "coordinates": [-58.95270664648044, -0.02869405321996579]}}, {"type": "Feature", "properties": {"norad_id": 42950, "name": "INTELSAT 37E (IS-37E)", "group": "intelsat", "lat": -0.000116584247562735, "lon": -42.43974336747242, "alt_km": 35779.7146892303, "timestamp": "2025-12-14T16:47:40.351012+00:00", "meta": {"OBJECT_NAME": "INTELSAT 37E (IS-37E)", "OBJECT_ID": "2017-059A", "EPOCH": "2025-12-13T21:55:26.868288", "MEAN_MOTION": 1.00272151, "ECCENTRICITY": 0.00030341, "INCLINATION": 0.0035, "RA_OF_ASC_NODE": 76.683, "ARG_OF_PERICENTER": 180.1559, "MEAN_ANOMALY": 136.8685, "EPHEMERIS_TYPE": 0, "CLASSIFICATION_TYPE": "U", "NORAD_CAT_ID": 42950, "ELEMENT_SET_NO": 999, "REV_AT_EPOCH": 3020, "BSTAR": 0, "MEAN_MOTION_DOT": -1.24e-06, "MEAN_MOTION_DDOT": 0}, "tle": {"line1": "1 42950U 17059A   25347.91350542 -.00000124  00000+0  00000+0 0  9998", "line2": "2 42950   0.0035  76.6830 0003034 180.1559 136.8685  1.00272151 30200"}}, "geometry": {"type": "Point", "coordinates": [-42.43974336747242, -0.000116584247562735]}}, {"type": "Feature", "properties": {"norad_id": 43632, "name": "AZERSPACE 2 (IS-38)", "group": "intelsat", "lat": 0.025933715029007848, "lon": 20.65010051132835, "alt_km": 35788.23191164211, "timestamp": "2025-12-14T16:47:40.351023+00:00", "meta": {"OBJECT_NAME": "AZERSPACE 2 (IS-38)", "OBJECT_ID": "2018-074A", "EPOCH": "2025-12-13T11:57:06.868224", "MEAN_MOTION": 1.00271726, "ECCENTRICITY": 0.00013299, "INCLINATION": 0.0179, "RA_OF_ASC_NODE": 341.0856, "ARG_OF_PERICENTER": 285.6516, "MEAN_ANOMALY": 40.0836, "EPHEMERIS_TYPE": 0, "CLASSIFICATION_TYPE": "U", "NORAD_CAT_ID": 43632, "ELEMENT_SET_NO": 999, "REV_AT_EPOCH": 2658, "BSTAR": 0, "MEAN_MOTION_DOT": 1.51e-06, "MEAN_MOTION_DDOT": 0}, "tle": {"line1": "1 43632U 18074A   25347.49799616  .00000151  00000+0  00000+0 0  9995", "line2": "2 43632   0.0179 341.0856 0001329 285.6516  40.0836  1.00271726 26580"}}, "geometry": {"type": "Point", "coordinates": [20.65010051132835, 0.025933715029007848]}}, {"type": "Feature", "properties": {"norad_id": 43633, "name": "HORIZONS-3E", "group": "intelsat", "lat": -0.024655711688189665, "lon": 144.49905320544997, "alt_km": 35790.441481572234, "timestamp": "2025-12-14T16:47:40.351035+00:00", "meta": {"OBJECT_NAME": "HORIZONS-3E", "OBJECT_ID": "2018-074B", "EPOCH": "2025-12-13T15:57:58.800096", "MEAN_MOTION": 1.00269269, "ECCENTRICITY": 0.00010406, "INCLINATION": 0.0438, "RA_OF_ASC_NODE": 185.0943, "ARG_OF_PERICENTER": 106.5973, "MEAN_ANOMALY": 199.3899, "EPHEMERIS_TYPE": 0, "CLASSIFICATION_TYPE": "U", "NORAD_CAT_ID": 43633, "ELEMENT_SET_NO": 999, "REV_AT_EPOCH": 2648, "BSTAR": 0, "MEAN_MOTION_DOT": -1.5e-07, "MEAN_MOTION_DDOT": 0}, "tle": {"line1": "1 43633U 18074B   25347.66526389 -.00000015  00000+0  00000+0 0  9990", "line2": "2 43633   0.0438 185.0943 0001040 106.5973 199.3899  1.00269269 26485"}}, "geometry": {"type": "Point", "coordinates": [144.49905320544997, -0.024655711688189665]}}, {"type": "Feature", "properties": {"norad_id": 44333, "name": "AT&T T-16", "group": "intelsat", "lat": -0.01112462400268051, "lon": -125.3265052043559, "alt_km": 35785.71306409859, "timestamp": "2025-12-14T16:47:40.351046+00:00", "meta": {"OBJECT_NAME": "AT&T T-16", "OBJECT_ID": "2019-034A", "EPOCH": "2025-12-13T19:48:51.688800", "MEAN_MOTION": 1.00271971, "ECCENTRICITY": 8.71e-05, "INCLINATION": 0.0274, "RA_OF_ASC_NODE": 73.1055, "ARG_OF_PERICENTER": 76.9165, "MEAN_ANOMALY": 129.0863, "EPHEMERIS_TYPE": 0, "CLASSIFICATION_TYPE": "U", "NORAD_CAT_ID": 44333, "ELEMENT_SET_NO": 999, "REV_AT_EPOCH": 2377, "BSTAR": 0, "MEAN_MOTION_DOT": -9.9e-07, "MEAN_MOTION_DDOT": 0}, "tle": {"line1": "1 44333U 19034A   25347.82559825 -.00000099  00000+0  00000+0 0  9996", "line2": "2 44333   0.0274  73.1055 0000871  76.9165 129.0863  1.00271971 23779"}}, "geometry": {"type": "Point", "coordinates": [-125.3265052043559, -0.01112462400268051]}}]}